start=new Date('2022-07-17T00:00:00.000Z').valueOf();
sats=[{"RA_OF_ASC_NODE":"129.9038","ECCENTRICITY":"0.00024680","ARG_OF_PERICENTER":"42.1633","COUNTRY_CODE":"US","TIME_SYSTEM":"UTC","LAUNCH_DATE":"2021-03-14","TLE_LINE2":"2 47892  53.0546 129.9038 0002468  42.1633 317.9550 15.16893197 75468","MEAN_ELEMENT_THEORY":"SGP4","MEAN_MOTION_DDOT":"0.0000000000000","FILE":"3515618","ELEMENT_SET_NO":"999","NORAD_CAT_ID":"47892","DECAY_DATE":null,"TLE_LINE1":"1 47892U 21021AJ  22197.82379095  .00001313  00000-0  81518-4 0  9995","CLASSIFICATION_TYPE":"U","MEAN_MOTION":"15.16893197","PERIOD":"94.931","OBJECT_ID":"2021-021AJ","PERIAPSIS":"513.538","OBJECT_NAME":"STARLINK-2352","MEAN_MOTION_DOT":"0.00001313","MEAN_ANOMALY":"317.9550","REV_AT_EPOCH":"7546","RCS_SIZE":"LARGE","GP_ID":"208271330","EPOCH":"2022-07-16T19:46:15.538080","SEMIMAJOR_AXIS":"6893.374","INCLINATION":"53.0546","CENTER_NAME":"EARTH","SITE":"AFETR","REF_FRAME":"TEME","BSTAR":"0.00008151800000","EPHEMERIS_TYPE":"0","APOAPSIS":"516.940","OBJECT_TYPE":"PAYLOAD"},{"OBJECT_TYPE":"PAYLOAD","BSTAR":"0.00013703000000","EPHEMERIS_TYPE":"0","APOAPSIS":"548.417","REF_FRAME":"TEME","SITE":"AFETR","INCLINATION":"53.0556","CENTER_NAME":"EARTH","EPOCH":"2022-07-16T12:27:56.386368","SEMIMAJOR_AXIS":"6925.360","GP_ID":"208239805","MEAN_ANOMALY":"299.2434","MEAN_MOTION_DOT":"0.00001760","REV_AT_EPOCH":"7535","RCS_SIZE":"LARGE","OBJECT_NAME":"STARLINK-2354","PERIAPSIS":"546.033","PERIOD":"95.592","OBJECT_ID":"2021-021AL","CLASSIFICATION_TYPE":"U","MEAN_MOTION":"15.06396274","DECAY_DATE":null,"TLE_LINE1":"1 47894U 21021AL  22197.51940262  .00001760  00000-0  13703-3 0  9999","NORAD_CAT_ID":"47894","ELEMENT_SET_NO":"999","MEAN_MOTION_DDOT":"0.0000000000000","FILE":"3515362","TLE_LINE2":"2 47894  53.0556 131.9763 0001721  60.8727 299.2434 15.06396274 75355","MEAN_ELEMENT_THEORY":"SGP4","TIME_SYSTEM":"UTC","LAUNCH_DATE":"2021-03-14","COUNTRY_CODE":"US","ECCENTRICITY":"0.00017210","RA_OF_ASC_NODE":"131.9763","ARG_OF_PERICENTER":"60.8727"},{"OBJECT_TYPE":"PAYLOAD","EPHEMERIS_TYPE":"0","BSTAR":"0.00024231000000","APOAPSIS":"548.351","REF_FRAME":"TEME","CENTER_NAME":"EARTH","INCLINATION":"53.0530","SITE":"AFETR","GP_ID":"208269840","EPOCH":"2022-07-16T15:54:56.268864","SEMIMAJOR_AXIS":"6925.332","MEAN_ANOMALY":"292.6167","MEAN_MOTION_DOT":"0.00003330","REV_AT_EPOCH":"7540","RCS_SIZE":"LARGE","PERIAPSIS":"546.042","OBJECT_NAME":"STARLINK-2355","CLASSIFICATION_TYPE":"U","MEAN_MOTION":"15.06405536","PERIOD":"95.592","OBJECT_ID":"2021-021AM","DECAY_DATE":null,"TLE_LINE1":"1 47895U 21021AM  22197.66315126  .00003330  00000-0  24231-3 0  9994","NORAD_CAT_ID":"47895","ELEMENT_SET_NO":"999","MEAN_MOTION_DDOT":"0.0000000000000","FILE":"3515618","TLE_LINE2":"2 47895  53.0530 131.3247 0001667  67.4998 292.6167 15.06405536 75409","MEAN_ELEMENT_THEORY":"SGP4","TIME_SYSTEM":"UTC","LAUNCH_DATE":"2021-03-14","COUNTRY_CODE":"US","RA_OF_ASC_NODE":"131.3247","ECCENTRICITY":"0.00016670","ARG_OF_PERICENTER":"67.4998"},{"APOAPSIS":"548.461","BSTAR":"0.00011861000000","EPHEMERIS_TYPE":"0","OBJECT_TYPE":"PAYLOAD","SITE":"AFETR","CENTER_NAME":"EARTH","INCLINATION":"53.0538","REF_FRAME":"TEME","RCS_SIZE":"LARGE","REV_AT_EPOCH":"7519","MEAN_ANOMALY":"298.3859","MEAN_MOTION_DOT":"0.00001486","SEMIMAJOR_AXIS":"6925.348","EPOCH":"2022-07-16T20:31:36.176448","GP_ID":"208271090","PERIOD":"95.592","OBJECT_ID":"2021-021AN","MEAN_MOTION":"15.06400292","CLASSIFICATION_TYPE":"U","OBJECT_NAME":"STARLINK-2356","PERIAPSIS":"545.964","NORAD_CAT_ID":"47896","TLE_LINE1":"1 47896U 21021AN  22197.85527982  .00001486  00000-0  11861-3 0  9996","DECAY_DATE":null,"FILE":"3515618","MEAN_MOTION_DDOT":"0.0000000000000","ELEMENT_SET_NO":"999","LAUNCH_DATE":"2021-03-14","TIME_SYSTEM":"UTC","MEAN_ELEMENT_THEORY":"SGP4","TLE_LINE2":"2 47896  53.0538 145.4646 0001803  61.7311 298.3859 15.06400292 75196","ARG_OF_PERICENTER":"61.7311","ECCENTRICITY":"0.00018030","RA_OF_ASC_NODE":"145.4646","COUNTRY_CODE":"US"},{"MEAN_MOTION_DDOT":"0.0000000000000","FILE":"3515402","ELEMENT_SET_NO":"999","NORAD_CAT_ID":"47897","DECAY_DATE":null,"TLE_LINE1":"1 47897U 21021AP  22197.52950986  .00002873  00000-0  21169-3 0  9998","RA_OF_ASC_NODE":"131.9069","ECCENTRICITY":"0.00016340","ARG_OF_PERICENTER":"65.7680","COUNTRY_CODE":"US","TIME_SYSTEM":"UTC","LAUNCH_DATE":"2021-03-14","TLE_LINE2":"2 47897  53.0563 131.9069 0001634  65.7680 294.3480 15.06403150 74921","MEAN_ELEMENT_THEORY":"SGP4","INCLINATION":"53.0563","CENTER_NAME":"EARTH","SITE":"AFETR","REF_FRAME":"TEME","BSTAR":"0.00021169000000","EPHEMERIS_TYPE":"0","APOAPSIS":"548.336","OBJECT_TYPE":"PAYLOAD","CLASSIFICATION_TYPE":"U","MEAN_MOTION":"15.06403150","PERIOD":"95.592","OBJECT_ID":"2021-021AP","PERIAPSIS":"546.072","OBJECT_NAME":"STARLINK-2357","MEAN_MOTION_DOT":"0.00002873","MEAN_ANOMALY":"294.3480","RCS_SIZE":"LARGE","REV_AT_EPOCH":"7492","GP_ID":"208244185","EPOCH":"2022-07-16T12:42:29.651904","SEMIMAJOR_AXIS":"6925.339"},{"APOAPSIS":"548.079","BSTAR":"0.00005673500000","EPHEMERIS_TYPE":"0","OBJECT_TYPE":"PAYLOAD","SITE":"AFETR","INCLINATION":"53.0537","CENTER_NAME":"EARTH","REF_FRAME":"TEME","REV_AT_EPOCH":"7539","RCS_SIZE":"LARGE","MEAN_MOTION_DOT":"0.00000564","MEAN_ANOMALY":"294.8228","SEMIMAJOR_AXIS":"6925.361","EPOCH":"2022-07-16T18:55:24.443040","GP_ID":"208269590","PERIOD":"95.592","OBJECT_ID":"2021-021AQ","MEAN_MOTION":"15.06395872","CLASSIFICATION_TYPE":"U","OBJECT_NAME":"STARLINK-2358","PERIAPSIS":"546.374","NORAD_CAT_ID":"47898","TLE_LINE1":"1 47898U 21021AQ  22197.78847735  .00000564  00000-0  56735-4 0  9997","DECAY_DATE":null,"FILE":"3515618","MEAN_MOTION_DDOT":"0.0000000000000","ELEMENT_SET_NO":"999","LAUNCH_DATE":"2021-03-14","TIME_SYSTEM":"UTC","MEAN_ELEMENT_THEORY":"SGP4","TLE_LINE2":"2 47898  53.0537 130.7674 0001231  65.2889 294.8228 15.06395872 75399","ARG_OF_PERICENTER":"65.2889","RA_OF_ASC_NODE":"130.7674","ECCENTRICITY":"0.00012310","COUNTRY_CODE":"US"},{"MEAN_MOTION_DOT":"0.00001111","MEAN_ANOMALY":"294.5620","RCS_SIZE":"LARGE","REV_AT_EPOCH":"7559","EPOCH":"2022-07-16T18:50:03.573312","SEMIMAJOR_AXIS":"6925.356","GP_ID":"208270340","PERIOD":"95.592","OBJECT_ID":"2021-021AR","CLASSIFICATION_TYPE":"U","MEAN_MOTION":"15.06397472","OBJECT_NAME":"STARLINK-2359","PERIAPSIS":"546.164","EPHEMERIS_TYPE":"0","BSTAR":"0.00009350300000","APOAPSIS":"548.278","OBJECT_TYPE":"PAYLOAD","SITE":"AFETR","CENTER_NAME":"EARTH","INCLINATION":"53.0544","REF_FRAME":"TEME","TIME_SYSTEM":"UTC","LAUNCH_DATE":"2021-03-14","TLE_LINE2":"2 47899  53.0544 120.7627 0001526  65.5528 294.5620 15.06397472 75598","MEAN_ELEMENT_THEORY":"SGP4","RA_OF_ASC_NODE":"120.7627","ECCENTRICITY":"0.00015260","ARG_OF_PERICENTER":"65.5528","COUNTRY_CODE":"US","NORAD_CAT_ID":"47899","DECAY_DATE":null,"TLE_LINE1":"1 47899U 21021AR  22197.78476358  .00001111  00000-0  93503-4 0  9990","MEAN_MOTION_DDOT":"0.0000000000000","FILE":"3515618","ELEMENT_SET_NO":"999"},{"SITE":"AFETR","INCLINATION":"53.0536","CENTER_NAME":"EARTH","REF_FRAME":"TEME","BSTAR":"0.00044771000000","EPHEMERIS_TYPE":"0","APOAPSIS":"548.437","OBJECT_TYPE":"PAYLOAD","OBJECT_ID":"2021-021AS","PERIOD":"95.592","CLASSIFICATION_TYPE":"U","MEAN_MOTION":"15.06404982","OBJECT_NAME":"STARLINK-2360","PERIAPSIS":"545.959","MEAN_ANOMALY":"297.1273","MEAN_MOTION_DOT":"0.00006394","REV_AT_EPOCH":"7492","RCS_SIZE":"LARGE","EPOCH":"2022-07-16T13:03:44.339616","SEMIMAJOR_AXIS":"6925.333","GP_ID":"208248331","MEAN_MOTION_DDOT":"0.0000000000000","FILE":"3515585","ELEMENT_SET_NO":"999","NORAD_CAT_ID":"47900","DECAY_DATE":null,"TLE_LINE1":"1 47900U 21021AS  22197.54426319  .00006394  00000-0  44771-3 0  9999","RA_OF_ASC_NODE":"131.8614","ECCENTRICITY":"0.00017890","ARG_OF_PERICENTER":"62.9898","COUNTRY_CODE":"US","TIME_SYSTEM":"UTC","LAUNCH_DATE":"2021-03-14","TLE_LINE2":"2 47900  53.0536 131.8614 0001789  62.9898 297.1273 15.06404982 74927","MEAN_ELEMENT_THEORY":"SGP4"},{"BSTAR":"0.00025417000000","EPHEMERIS_TYPE":"0","APOAPSIS":"548.173","OBJECT_TYPE":"PAYLOAD","CENTER_NAME":"EARTH","INCLINATION":"53.0547","SITE":"AFETR","REF_FRAME":"TEME","MEAN_MOTION_DOT":"0.00003506","MEAN_ANOMALY":"289.4115","REV_AT_EPOCH":"7554","RCS_SIZE":"LARGE","GP_ID":"208271331","EPOCH":"2022-07-16T13:48:53.837568","SEMIMAJOR_AXIS":"6925.347","CLASSIFICATION_TYPE":"U","MEAN_MOTION":"15.06400659","PERIOD":"95.592","OBJECT_ID":"2021-021AT","PERIAPSIS":"546.250","OBJECT_NAME":"STARLINK-2361","NORAD_CAT_ID":"47901","DECAY_DATE":null,"TLE_LINE1":"1 47901U 21021AT  22197.57562312  .00003506  00000-0  25417-3 0  9995","MEAN_MOTION_DDOT":"0.0000000000000","FILE":"3515618","ELEMENT_SET_NO":"999","TIME_SYSTEM":"UTC","LAUNCH_DATE":"2021-03-14","TLE_LINE2":"2 47901  53.0547 121.8040 0001389  70.7025 289.4115 15.06400659 75542","MEAN_ELEMENT_THEORY":"SGP4","RA_OF_ASC_NODE":"121.8040","ECCENTRICITY":"0.00013890","ARG_OF_PERICENTER":"70.7025","COUNTRY_CODE":"US"},{"OBJECT_TYPE":"PAYLOAD","EPHEMERIS_TYPE":"0","BSTAR":"0.00038077000000","APOAPSIS":"548.318","REF_FRAME":"TEME","SITE":"AFETR","CENTER_NAME":"EARTH","INCLINATION":"53.0545","EPOCH":"2022-07-16T19:47:09.417984","SEMIMAJOR_AXIS":"6925.323","GP_ID":"208270090","MEAN_MOTION_DOT":"0.00005396","MEAN_ANOMALY":"289.0113","RCS_SIZE":"LARGE","REV_AT_EPOCH":"7541","OBJECT_NAME":"STARLINK-2362","PERIAPSIS":"546.059","PERIOD":"95.592","OBJECT_ID":"2021-021AU","CLASSIFICATION_TYPE":"U","MEAN_MOTION":"15.06408299","DECAY_DATE":null,"TLE_LINE1":"1 47902U 21021AU  22197.82441456  .00005396  00000-0  38077-3 0  9994","NORAD_CAT_ID":"47902","ELEMENT_SET_NO":"999","MEAN_MOTION_DDOT":"0.0000000000000","FILE":"3515618","TLE_LINE2":"2 47902  53.0545 140.5944 0001631  71.1052 289.0113 15.06408299 75415","MEAN_ELEMENT_THEORY":"SGP4","TIME_SYSTEM":"UTC","LAUNCH_DATE":"2021-03-14","COUNTRY_CODE":"US","ECCENTRICITY":"0.00016310","RA_OF_ASC_NODE":"140.5944","ARG_OF_PERICENTER":"71.1052"}];
